NOAA 15                 
1 25338U 98030A   24318.47816997  .00000592  00000+0  26193-3 0  9999
2 25338  98.5567 342.4225 0009248 245.8089 114.2126 14.26794896378724
NOAA 18                 
1 28654U 05018A   24318.44444310  .00000612  00000+0  34912-3 0  9991
2 28654  98.8635  34.0993 0014099   4.3242 355.8050 14.13419511  4349
NOAA 19                 
1 33591U 09005A   24318.41757082  .00000570  00000+0  32880-3 0  9992
2 33591  99.0288  15.6704 0013119 228.8371 131.1669 14.13198506812701
METOP-B                 
1 38771U 12049A   24318.39589433  .00000488  00000+0  24210-3 0  9995
2 38771  98.6093  12.1329 0001219  80.3369 279.7946 14.21584160630749
SARAL                   
1 39086U 13009A   24318.13675931  .00000451  00000+0  18231-3 0  9999
2 39086  98.5497 141.2341 0001699 170.8562 189.2653 14.32579976612400
METOP-C                 
1 43689U 18087A   24318.43574604  .00000476  00000+0  23746-3 0  9996
2 43689  98.7054  15.8285 0002021  51.7749 308.3610 14.21514032312327
ANGELS                  
1 44876U 19092D   24317.78055513  .00015040  00000+0  49736-3 0  9992
2 44876  97.4662 146.9298 0009417 145.4513 214.7342 15.31406300272061
OTB-3-GAZELLE           
1 54023U 22127A   24317.93792871  .00000552  00000+0  17996-3 0  9997
2 54023  98.3547 309.0532 0013999 138.4953 221.7302 14.42311601110561
EOS-6 (OCEANSAT-3)      
1 54361U 22158A   24318.51795571  .00000425  00000+0  12878-3 0  9994
2 54361  98.3550  53.5461 0001249  90.4379 269.6957 14.46990307103868
